     2.100          NAVIGATION                              RINEX VERSION / TYPE
fic2rin                                 02/25/2010 00:53:50 PGM / RUN BY / DATE
                                                            END OF HEADER
18 10  2 24 16  0  0.0  .511277467012D-04  .261479726760D-11  .000000000000D+00
     .620000000000D+02  .271250000000D+02  .492556231230D-08  .189799842437D+01
     .134669244289D-05  .109736745944D-01  .953860580921D-05  .515367485619D+04
     .316800000000D+06 -.247731804848D-06  .206977043971D+01 -.838190317154D-07
     .938269796486D+00  .187281250000D+03 -.235344588217D+01 -.817926927082D-08
    -.492877673191D-09  .100000000000D+01  .157200000000D+04  .000000000000D+00
     .240000000000D+01  .000000000000D+00 -.107102096081D-07  .620000000000D+02
     .309606000000D+06  .400000000000D+01
19 10  2 24 16  0  0.0 -.176797620952D-04 -.238742359215D-11  .000000000000D+00
     .350000000000D+02 -.114062500000D+02  .470198157069D-08 -.173874636771D+00
    -.618398189545D-06  .618751777802D-02  .965967774391D-05  .515369959831D+04
     .316800000000D+06  .109896063805D-06  .276508691640D-01 -.149011611938D-07
     .958167562634D+00  .191312500000D+03 -.179347343085D+00 -.801997692137D-08
     .508235455761D-09  .100000000000D+01  .157200000000D+04  .000000000000D+00
     .240000000000D+01  .000000000000D+00 -.149011611938D-07  .350000000000D+02
     .309606000000D+06  .400000000000D+01
20 10  2 24 16  0  0.0  .606691464782D-04 -.682121026330D-12  .000000000000D+00
     .370000000000D+02  .351875000000D+02  .493091967831D-08  .204443247475D+01
     .166706740856D-05  .434591341764D-02  .992976129055D-05  .515367001724D+04
     .316800000000D+06 -.745058059692D-08  .201583765331D+01 -.121071934700D-06
     .938058793960D+00  .172843750000D+03  .129486847361D+01 -.808890836407D-08
    -.579309844866D-09  .100000000000D+01  .157200000000D+04  .000000000000D+00
     .240000000000D+01  .000000000000D+00 -.791624188423D-08  .370000000000D+02
     .309606000000D+06  .400000000000D+01
22 10  2 24 16  0  0.0  .178316142410D-03 -.909494701773D-12  .000000000000D+00
     .270000000000D+02  .362500000000D+02  .511557022689D-08  .900809646132D+00
     .193342566490D-05  .507111242041D-02  .937283039093D-05  .515366033363D+04
     .316800000000D+06 -.502914190292D-07  .207488188426D+01  .298023223877D-07
     .935951164957D+00  .188781250000D+03 -.190351794260D+01 -.831427489435D-08
    -.498592196938D-09  .100000000000D+01  .157200000000D+04  .000000000000D+00
     .240000000000D+01  .000000000000D+00 -.176951289177D-07  .270000000000D+02
     .309606000000D+06  .400000000000D+01
23 10  2 24 16  0  0.0  .379041768610D-03 -.102318153949D-11  .000000000000D+00
     .530000000000D+02  .125250000000D+03  .417338812408D-08 -.720900858494D+00
     .634230673313D-05  .637594924774D-02  .691600143909D-05  .515372489357D+04
     .316800000000D+06  .838190317154D-07  .310007027963D+01 -.175088644028D-06
     .968990385653D+00  .250500000000D+03  .300712293828D+01 -.804747806691D-08
     .835749098019D-10  .100000000000D+01  .157200000000D+04  .000000000000D+00
     .240000000000D+01  .000000000000D+00 -.200234353542D-07  .530000000000D+02
     .309606000000D+06  .400000000000D+01
24 10  2 24 16  0  0.0  .265251845121D-03  .329691829393D-11  .000000000000D+00
     .910000000000D+02  .634375000000D+01  .520271671403D-08  .127005125629D+01
     .342726707458D-06  .583397271112D-02  .639632344246D-05  .515488451958D+04
     .316800000000D+06  .856816768646D-07  .104882706980D+01  .298023223877D-07
     .949336085647D+00  .250437500000D+03 -.476291973324D+00 -.826177270742D-08
    -.157149403046D-09  .100000000000D+01  .157200000000D+04  .000000000000D+00
     .240000000000D+01  .000000000000D+00 -.139698386192D-08  .910000000000D+02
     .309606000000D+06  .400000000000D+01
26 10  2 24 16  0  0.0 -.217836350203D-04 -.386535248253D-11  .000000000000D+00
     .290000000000D+02  .106562500000D+03  .366408119512D-08 -.261046868640D+01
     .539794564247D-05  .192702419590D-01  .624358654022D-05  .515233469772D+04
     .316800000000D+06  .266358256340D-06 -.312767145054D+01 -.838190317154D-07
     .991582759128D+00  .274718750000D+03  .106121979849D+01 -.751209862335D-08
     .177150236161D-09  .100000000000D+01  .157200000000D+04  .000000000000D+00
     .240000000000D+01  .000000000000D+00 -.605359673500D-08  .290000000000D+02
     .309606000000D+06  .400000000000D+01
27 10  2 24 16  0  0.0  .128930434585D-03  .318323145621D-11  .000000000000D+00
     .570000000000D+02 -.796875000000D+01  .427839249793D-08  .303305474119D-01
    -.411644577980D-06  .217304717517D-01  .271201133728D-05  .515366322327D+04
     .316800000000D+06 -.396743416786D-06 -.219829638908D+01 -.135973095894D-06
     .977379205573D+00  .340375000000D+03 -.145768573917D+01 -.855285626079D-08
     .271439877989D-10  .100000000000D+01  .157200000000D+04  .000000000000D+00
     .340000000000D+01  .000000000000D+00 -.419095158577D-08  .570000000000D+02
     .309606000000D+06  .400000000000D+01
28 10  2 24 16  0  0.0 -.215615145862D-04  .682121026330D-12  .000000000000D+00
     .230000000000D+02 -.128062500000D+03  .421374694805D-08  .108255089520D+01
    -.664405524731D-05  .158478827216D-01  .876933336258D-05  .515367112160D+04
     .316800000000D+06 -.288709998131D-06 -.106256980709D+01  .372529029846D-08
     .969199386908D+00  .219593750000D+03 -.197359685637D+01 -.814212486647D-08
    -.610739725475D-10  .100000000000D+01  .157200000000D+04  .000000000000D+00
     .240000000000D+01  .000000000000D+00 -.107102096081D-07  .230000000000D+02
     .309606000000D+06  .400000000000D+01
29 10  2 24 16  0  0.0  .100516248494D-03  .284217094304D-11  .000000000000D+00
     .570000000000D+02 -.790625000000D+01  .454626079858D-08 -.303751497799D+01
    -.571832060814D-06  .294534151908D-02  .977888703346D-05  .515378755188D+04
     .316800000000D+06  .353902578354D-07 -.193750362595D-01  .633299350739D-07
     .960828138097D+00  .188093750000D+03 -.131485777162D+01 -.787747098543D-08
     .511092717635D-09  .100000000000D+01  .157200000000D+04  .000000000000D+00
     .240000000000D+01  .000000000000D+00 -.884756445885D-08  .570000000000D+02
     .309606000000D+06  .400000000000D+01
30 10  2 24 16  0  0.0  .219238456339D-03  .341060513165D-11  .000000000000D+00
     .680000000000D+02 -.114531250000D+03  .445375694543D-08  .157062871149D+01
    -.610575079918D-05  .119827880990D-01  .748597085476D-05  .515378219795D+04
     .316800000000D+06 -.242143869400D-07 -.113987836252D+01 -.309199094772D-06
     .954882302132D+00  .233562500000D+03  .147303092181D+01 -.812819571483D-08
     .407159816984D-10  .100000000000D+01  .157200000000D+04  .000000000000D+00
     .240000000000D+01  .630000000000D+02 -.791624188423D-08  .680000000000D+02
     .309606000000D+06  .400000000000D+01
31 10  2 24 16  0  0.0 -.500986352563D-04  .159161572810D-11  .000000000000D+00
     .900000000000D+02 -.207812500000D+02  .433875215501D-08 -.237197906028D+01
    -.907108187675D-06  .759812141769D-02  .183656811714D-05  .515363001251D+04
     .316800000000D+06  .167638063431D-07 -.214245601894D+01  .968575477600D-07
     .975811488431D+00  .352750000000D+03 -.109035447474D+01 -.820891336276D-08
     .157149403046D-10  .100000000000D+01  .157200000000D+04  .000000000000D+00
     .240000000000D+01  .000000000000D+00 -.130385160446D-07  .900000000000D+02
     .309606000000D+06  .400000000000D+01
31 10  2 24 15 59 44.0 -.500995665789D-04  .159161572810D-11  .000000000000D+00
     .700000000000D+01 -.207812500000D+02  .433875215501D-08 -.237431272622D+01
    -.908970832825D-06  .759812304750D-02  .183656811714D-05  .515363000679D+04
     .316784000000D+06  .167638063431D-07 -.214245590630D+01  .968575477600D-07
     .975811479654D+00  .352750000000D+03 -.109035455812D+01 -.820891336276D-08
     .153577825704D-10  .100000000000D+01  .157200000000D+04  .000000000000D+00
     .240000000000D+01  .000000000000D+00 -.130385160446D-07  .700000000000D+01
     .312216000000D+06  .400000000000D+01
14 10  2 24 15 59 44.0  .153961591423D-04  .420641299570D-11  .000000000000D+00
     .200000000000D+01  .993125000000D+02  .387980446657D-08 -.227592909644D-01
     .522658228874D-05  .497084332164D-02  .647455453873D-05  .515371458817D+04
     .316784000000D+06  .149011611938D-07  .313734813137D+01  .128522515297D-06
     .987139165943D+00  .271156250000D+03 -.209842277285D+01 -.792175854447D-08
     .585738684082D-10  .100000000000D+01  .157200000000D+04  .000000000000D+00
     .240000000000D+01  .000000000000D+00 -.884756445885D-08  .200000000000D+01
     .315186000000D+06  .400000000000D+01
14 10  2 24 17 59 44.0  .154264271259D-04  .420641299570D-11  .000000000000D+00
     .300000000000D+01  .980312500000D+02  .378337187834D-08  .102715340595D+01
     .514835119247D-05  .497270631604D-02  .721029937267D-05  .515371876526D+04
     .323984000000D+06 -.763684511185D-07  .313729144622D+01  .707805156708D-07
     .987139325401D+00  .255406250000D+03 -.209818576988D+01 -.789568602987D-08
     .928610108910D-11  .100000000000D+01  .157200000000D+04  .000000000000D+00
     .240000000000D+01  .000000000000D+00 -.884756445885D-08  .300000000000D+01
     .316806000000D+06  .400000000000D+01
31 10  2 24 17 59 44.0 -.500883907080D-04  .159161572810D-11  .000000000000D+00
     .330000000000D+02 -.159062500000D+02  .439268297288D-08 -.132414552105D+01
    -.746920704842D-06  .759866542649D-02  .228732824326D-05  .515362917137D+04
     .323984000000D+06 -.111758708954D-06 -.214251578354D+01  .558793544769D-08
     .975810955929D+00  .347406250000D+03 -.109031431178D+01 -.836713423901D-08
     .432160858377D-10  .100000000000D+01  .157200000000D+04  .000000000000D+00
     .240000000000D+01  .000000000000D+00 -.130385160446D-07  .330000000000D+02
     .316806000000D+06  .400000000000D+01
